[
    {
        "Altitude(m)": 604221.2240268126,
        "Argument of Periapsis(deg)": 0.0,
        "Eccentricity": 0.0,
        "Inclination(deg)": 60.0,
        "Latitude(deg)": 14.1173581941823,
        "Longitude(deg)": 53.33413077424021,
        "Mean Anomaly(deg)": 16.363600000000012,
        "RAAN(deg)": 145.0,
        "Satellite Name": "Test1 639",
        "Satellite Number": 639,
        "Semi-Major Axis(m)": 6980739.136638005,
        "Time(s)": 0
    },
    {
        "Altitude(m)": 604235.3657051586,
        "Argument of Periapsis(deg)": 0.00010418945913296404,
        "Eccentricity": 0.0,
        "Inclination(deg)": 60.0,
        "Latitude(deg)": 14.651755416654337,
        "Longitude(deg)": 53.622576954825,
        "Mean Anomaly(deg)": 16.983706145461838,
        "RAAN(deg)": 144.99957995086027,
        "Satellite Name": "Test1 639",
        "Satellite Number": 639,
        "Semi-Major Axis(m)": 6980739.136638005,
        "Time(s)": 10
    }
]